HORYU-4                 
1 41340U 16012D   20090.38913686  .00000402  00000-0  23700-4 0  9999
2 41340  31.0044 115.2772 0013932  83.9908 276.2315 15.01450133225981
E-ST@R-II               
1 41459U 16025D   20090.81218995  .00001801  00000-0  93651-4 0  9999
2 41459  98.0973 196.7573 0167176 116.2607 245.5903 15.06220975215609
AAUSAT 4                
1 41460U 16025E   20090.80196054  .00002296  00000-0  11508-3 0  9990
2 41460  98.0941 198.8032 0156150 106.0954 255.7530 15.08437099215788
DIWATA-1                
1 41463U 98067HT  20090.79295228  .00655062  11899-4  29123-3 0  9999
2 41463  51.6137 178.4722 0008065 350.1901 106.5991 16.21516865225340
BEESAT-4                
1 41619U 16040W   20090.69608925  .00001327  00000-0  57921-4 0  9999
2 41619  97.3286 152.0661 0012898  97.0361 263.2344 15.23802300197402
CANX-7                  
1 41788U 16059F   20090.83071762  .00007142  00000-0  10049-2 0  9994
2 41788  98.2500 176.7564 0032515 180.9815 179.1335 14.77282229188200
RAVAN                   
1 41849U 16067B   20090.74991322 -.00000013  00000-0  40799-5 0  9993
2 41849  97.9248 199.3077 0008806 142.7142 217.4693 14.98485821184832
CELTEE 1                
1 41850U 16067C   20090.74038668 -.00000332  00000-0 -23506-4 0  9991
2 41850  97.9199 197.2533 0009391 144.1245 216.0609 14.97143476184729
OPTICUBE 04             
1 41851U 16067D   20090.79115871 -.00000002  00000-0  51472-5 0  9996
2 41851  97.9194 196.9652 0009686 143.8340 216.3538 14.96902304184717
AEROCUBE 8D             
1 41852U 16067E   20090.73922520 -.00000277  00000-0 -18832-4 0  9995
2 41852  97.9196 196.7442 0010252 146.7489 213.4378 14.96865867184680
AEROCUBE 8C             
1 41853U 16067F   20090.76897103  .00000673  00000-0  64014-4 0  9998
2 41853  97.9192 196.6858 0011023 147.6200 212.5699 14.96828776184689
PROMETHEUS 2-1          
1 41854U 16067G   20090.75477592  .00000350  00000-0  35588-4 0  9990
2 41854  97.9196 196.9519 0011118 148.6760 211.5126 14.97122199184690
PROMETHEUS 2-3          
1 41855U 16067H   20090.75574073  .00000376  00000-0  37783-4 0  9990
2 41855  97.9199 196.9816 0011310 149.1094 211.0795 14.97132073184693
INS-1B                  
1 41954U 17008G   20090.72279446  .00001202  00000-0  51619-4 0  9992
2 41954  97.3622 156.5098 0008218 208.9509 151.1273 15.24581992173377
BGUSAT                  
1 41999U 17008BD  20090.72367113  .00002028  00000-0  78875-4 0  9990
2 41999  97.3725 160.2268 0006938 217.8854 142.1898 15.27169671172933
DIDO-2                  
1 42000U 17008BE  20090.73718241  .00000792  00000-0  35229-4 0  9999
2 42000  97.3631 157.0542 0007130 229.8120 130.2494 15.24346827172775
PEASSS                  
1 42015U 17008BV  20090.70655641  .00001075  00000-0  45330-4 0  9995
2 42015  97.3650 158.4694 0004952 231.5341 128.5454 15.25437583173340
AL-FARABI 1             
1 42016U 17008BW  20090.44208416  .00001141  00000-0  46844-4 0  9996
2 42016  97.3676 159.1278 0004838 230.6723 129.4087 15.26225463173471
NAYIF-1 (EO-88)         
1 42017U 17008BX  20090.75068521  .00001416  00000-0  57401-4 0  9998
2 42017  97.3670 159.4433 0004896 229.1502 130.9312 15.26266426173544
NSIGHT                  
1 42726U 98067MF  20090.69607031  .00229688  33109-4  44745-3 0  9996
2 42726  51.6257 266.4668 0006147 263.7759  96.2551 15.99760585163041
UCLSAT                  
1 42765U 17036A   20090.73165361  .00001102  00000-0  49269-4 0  9992
2 42765  97.3107 147.0540 0009859 308.9317  51.1040 15.23344642154001
LITUANICASAT-2          
1 42768U 17036D   20090.79954882  .00001492  00000-0  64827-4 0  9994
2 42768  97.3159 146.9790 0013046 295.7131  64.2759 15.23762838153862
AALTO-1                 
1 42775U 17036L   20090.67881645  .00000651  00000-0  31733-4 0  9991
2 42775  97.3086 145.0379 0012304 299.8610  60.1403 15.21723195153698
URSA MAIOR              
1 42776U 17036M   20090.80878471  .00000587  00000-0  28756-4 0  9999
2 42776  97.3097 145.4156 0012102 299.1446  60.8578 15.21892414153729
COMPASS 2               
1 42777U 17036N   20090.68435729  .00001416  00000-0  61854-4 0  9999
2 42777  97.3150 147.3106 0010672 298.2496  61.7664 15.23676646153805
DIAMOND RED             
1 42783U 17036U   20090.69125304  .00000873  00000-0  40378-4 0  9996
2 42783  97.3108 146.3618 0010586 310.7342  49.2974 15.22684956153768
PEGASUS                 
1 42784U 17036V   20090.80679866  .00000818  00000-0  37624-4 0  9996
2 42784  97.3112 146.8476 0010438 309.2551  50.7759 15.23043222153801
DIAMOND GREEN           
1 42785U 17036W   20090.69003292  .00000799  00000-0  37216-4 0  9993
2 42785  97.3110 146.3936 0010480 311.4835  48.5501 15.22682999153756
DIAMOND BLUE            
1 42786U 17036X   20090.62355134  .00000888  00000-0  41026-4 0  9995
2 42786  97.3109 146.3248 0010336 312.0488  47.9868 15.22684856153823
NUDTSAT                 
1 42787U 17036Y   20090.92923306  .00001537  00000-0  65747-4 0  9999
2 42787  97.3153 148.1860 0010399 308.9530  51.0781 15.24269881153733
SUCHAI                  
1 42788U 17036Z   20090.79295137  .00001002  00000-0  44784-4 0  9994
2 42788  97.3119 147.3518 0009949 307.8656  52.1680 15.23559979153901
SKCUBE                  
1 42789U 17036AA  20090.69984603  .00001123  00000-0  50042-4 0  9995
2 42789  97.3114 147.1368 0009836 308.6032  51.4324 15.23416929153803
VZLUSAT-1               
1 42790U 17036AB  20090.65507742  .00001525  00000-0  65295-4 0  9990
2 42790  97.3136 147.9154 0009305 306.6162  53.4219 15.24259196153844
ROBUSTA-1B              
1 42792U 17036AD  20090.79463297  .00000931  00000-0  41782-4 0  9998
2 42792  97.3116 147.4564 0009417 308.9456  51.0941 15.23601905153843
CICERO 6                
1 42793U 17036AE  20090.68365474  .00000773  00000-0  35786-4 0  9996
2 42793  97.3094 146.8530 0008817 312.7246  47.3248 15.23007036153874
D-SAT                   
1 42794U 17036AF  20090.66767226  .00000055  00000-0  10445-4 0  9994
2 42794  97.5034 127.1856 0124664 267.9200  90.7740 14.91241373150957
CORVUS BC2              
1 42846U 17042X   20090.77752361  .00000178  00000-0  22723-4 0  9993
2 42846  97.5339 337.8332 0009658 171.6883 188.4499 14.92076884147670
CORVUS BC1              
1 42847U 17042Y   20090.77854456  .00000168  00000-0  21727-4 0  9994
2 42847  97.5342 337.9894 0009319 170.6171 189.5224 14.92177945147670
MIRATA                  
1 43015U 17073C   20090.75270391  .00001083  00000-0  89868-4 0  9991
2 43015  97.7214   5.9543 0252590 305.5442  52.2453 14.79520595127588
MAKERSAT 0              
1 43016U 17073D   20090.75952641  .00000774  00000-0  65990-4 0  9993
2 43016  97.7250   6.1539 0255224 306.3797  51.4109 14.79123729127561
ASTERIA                 
1 43020U 98067NH  20090.78891196  .00206066  28683-4  41600-3 0  9994
2 43020  51.6423 278.8579 0004404 297.1490  62.9071 15.99183686135079
DELLINGR (RBLE)         
1 43021U 98067NJ  20090.81202164  .00011229  00000-0  10158-3 0  9998
2 43021  51.6369 321.1553 0002398 124.2476 235.8748 15.68643904134517
AEROCUBE 7B (OCSD B)    
1 43042U 17071F   20090.43425701  .00003202  00000-0  80686-4 0  9995
2 43042  51.6369  94.1513 0004922 111.4699 248.6813 15.43023189130176
AEROCUBE 7C (OCSD C)    
1 43043U 17071G   20090.30680221  .00002922  00000-0  74531-4 0  9992
2 43043  51.6369  94.8149 0005113 115.1699 244.9817 15.42998159130128
CHEFSAT                 
1 43044U 17071H   20090.52703128  .00009758  00000-0  19689-3 0  9995
2 43044  51.6379  81.5223 0004772 116.3774 243.7704 15.47192832130326
ASGARDIA 1              
1 43049U 17071N   20090.56219026  .00003559  00000-0  88478-4 0  9999
2 43049  51.6381  92.8340 0002650 124.6852 235.4383 15.43076017130177
ISARA                   
1 43050U 17071P   20090.46187722  .00006409  00000-0  13605-3 0  9993
2 43050  51.6361  83.9871 0002528 119.9379 240.1859 15.46365095130285
PROPCUBE 2 (FAUNA)      
1 43052U 17071R   20090.37628499  .00002856  00000-0  71912-4 0  9994
2 43052  51.6375  92.3612 0002637 120.5212 239.6035 15.43479714130150
CORVUS BC3              
1 43118U 18004H   20090.73195564  .00000698  00000-0  32470-4 0  9994
2 43118  97.4505 161.6260 0009533 337.6151  22.4668 15.23243380123013
MICROMAS-2A             
1 43131U 18004W   20090.78591703  .00001411  00000-0  59407-4 0  9992
2 43131  97.4546 163.1426 0008309 337.6385  22.4489 15.25006777123103
SPACEBEE-4              
1 43139U 18004AE  20090.75216312  .00002577  00000-0  10251-3 0  9994
2 43139  97.4573 164.1085 0007551 339.8520  20.2419 15.26179747123159
SPACEBEE-3              
1 43140U 18004AF  20090.74048795  .00003213  00000-0  12408-3 0  9997
2 43140  97.4586 164.6643 0007169 338.5737  21.5201 15.26980440123187
SPACEBEE-2              
1 43141U 18004AG  20090.73501685  .00003309  00000-0  12668-3 0  9993
2 43141  97.4598 164.8693 0007113 337.8398  22.2532 15.27253185123198
SPACEBEE-1              
1 43142U 18004AH  20090.78560907  .00002863  00000-0  10897-3 0  9997
2 43142  97.4601 165.1360 0007055 337.2984  22.7942 15.27565408123205
CICERO 7                
1 43143U 18004AJ  20090.72423053  .00001601  00000-0  66918-4 0  9997
2 43143  97.4527 163.2780 0006823 350.7936   9.3175 15.25076924123114
GOMX-4B                 
1 43196U 18015E   20090.90045778  .00000294  00000-0  14962-4 0  9990
2 43196  97.4229 220.0998 0019605  25.3739 334.8454 15.24184682119933
GOMX-4A                 
1 43197U 18015F   20090.81979429  .00000636  00000-0  28780-4 0  9993
2 43197  97.4237 220.0880 0019811  26.6657 126.9487 15.24384709119933
1KUNS-PF                
1 43466U 98067NP  20090.80366307  .00075954  00000-0  30045-3 0  9992
2 43466  51.6297 306.5626 0003351 211.2013 148.8793 15.86080790107962
UBAKUSAT                
1 43467U 98067NQ  20090.79385646  .00019060  00000-0  15011-3 0  9990
2 43467  51.6347 325.4453 0002013 119.3772 240.7428 15.71487300107724
